NORAD_CAT_ID,OBJECT_NAME,OBJECT_TYPE,EPOCH,MEAN_MOTION,ECCENTRICITY,INCLINATION,RA_OF_ASC_NODE,ARG_OF_PERICENTER,MEAN_ANOMALY,BSTAR,MEAN_MOTION_DOT,MEAN_MOTION_DDOT,TLE_LINE0,TLE_LINE1,TLE_LINE2,SEMIMAJOR_AXIS,PERIOD,APOGEE,PERIGEE,DECAYED
56473.0,STARLINK-5486,PAYLOAD,2023-11-21 13:11:25,14.98310969,0.0002484,70.0013,80.2495,256.0368,104.0515,0.00032124,3.74e-05,0.0,0 STARLINK-5486,1 56473U 23064AB  23325.54959619  .00003740  00000-0  32124-3 0  9992,2 56473  70.0013  80.2495 0002484 256.0368 104.0515 14.98310969 30047,6950.252,96.108,573.843,570.39,0.0
56473.0,STARLINK-5486,PAYLOAD,2023-11-21 19:35:56,14.98338526,0.0003064,69.9998,79.5756,267.8171,92.2637,0.00011572,1.288e-05,0.0,0 STARLINK-5486,1 56473U 23064AB  23325.81662448  .00001288  00000-0  11572-3 0  9992,2 56473  69.9998  79.5756 0003064 267.8171  92.2637 14.98338526 30080,6950.167,96.106,574.161,569.902,0.0
56473.0,STARLINK-5486,PAYLOAD,2023-11-22 11:37:17,14.98334631,0.000298,70.0004,77.8934,271.2563,88.8255,5.8299e-06,-2.3e-07,0.0,0 STARLINK-5486,1 56473U 23064AB  23326.48422815 -.00000023  00000-0  58299-5 0  9994,2 56473  70.0004  77.8934 0002980 271.2563  88.8255 14.98334631 30541,6950.179,96.107,574.115,569.972,0.0
56473.0,STARLINK-5486,PAYLOAD,2023-11-22 13:13:25,14.98335458,0.0002936,70.0007,77.7253,272.3025,87.7798,1.8188e-05,1.24e-06,0.0,0 STARLINK-5486,1 56473U 23064AB  23326.55098714  .00000124  00000-0  18188-4 0  9992,2 56473  70.0007  77.7253 0002936 272.3025  87.7798 14.98335458 30192,6950.176,96.107,574.082,570.0,0.0
56473.0,STARLINK-5486,PAYLOAD,2023-11-22 18:01:48,14.98339174,0.0002545,70.0016,77.2203,262.8629,97.2241,8.7121e-05,9.47e-06,0.0,0 STARLINK-5486,1 56473U 23064AB  23326.75126133  .00000947  00000-0  87121-4 0  9997,2 56473  70.0016  77.2203 0002545 262.8629  97.2241 14.98339174 30583,6950.165,96.106,573.798,570.261,0.0
56473.0,STARLINK-5486,PAYLOAD,2023-11-23 11:39:19,14.98320893,0.0003181,70.0,75.3689,267.3403,92.7392,-0.00017413,-2.17e-05,0.0,0 STARLINK-5486,1 56473U 23064AB  23327.48564072 -.00002170  00000-0 -17413-3 0  9994,2 56473  70.0000  75.3689 0003181 267.3403  92.7392 14.98320893 30697,6950.221,96.108,574.297,569.875,0.0
56473.0,STARLINK-5486,PAYLOAD,2023-11-23 16:27:43,14.98320806,0.0003132,70.0001,74.8641,266.2088,93.8713,-0.00016448,-2.055e-05,0.0,0 STARLINK-5486,1 56473U 23064AB  23327.68592143 -.00002055  00000-0 -16448-3 0  9995,2 56473  70.0001  74.8641 0003132 266.2088  93.8713 14.98320806 30360,6950.221,96.108,574.263,569.91,0.0
56473.0,STARLINK-5486,PAYLOAD,2023-11-24 11:41:20,14.98327824,0.0003119,70.0,72.8428,271.6135,88.4667,-0.00010118,-1.3e-05,0.0,0 STARLINK-5486,1 56473U 23064AB  23328.48703909 -.00001300  00000-0 -10118-3 0  9998,2 56473  70.0000  72.8428 0003119 271.6135  88.4667 14.98327824 30846,6950.2,96.107,574.232,569.897,0.0
56473.0,STARLINK-5486,PAYLOAD,2023-11-24 13:17:28,14.9832729,0.0003156,69.9998,72.6743,271.2535,88.8262,-9.9839e-05,-1.284e-05,0.0,0 STARLINK-5486,1 56473U 23064AB  23328.55379951 -.00001284  00000-0 -99839-4 0  9991,2 56473  69.9998  72.6743 0003156 271.2535  88.8262 14.98327290 30491,6950.201,96.107,574.26,569.873,0.0
56473.0,STARLINK-5486,PAYLOAD,2023-11-24 16:29:43,14.98334742,0.0003022,70.0,72.3376,267.9156,92.1657,-1.4157e-05,-2.62e-06,0.0,0 STARLINK-5486,1 56473U 23064AB  23328.68731204 -.00000262  00000-0 -14157-4 0  9993,2 56473  70.0000  72.3376 0003022 267.9156  92.1657 14.98334742 30878,6950.178,96.107,574.144,569.943,0.0
56473.0,STARLINK-5486,PAYLOAD,2023-11-25 13:19:28,14.98323032,0.0002678,70.0008,70.1485,259.989,100.0967,0.00019971,2.29e-05,0.0,0 STARLINK-5486,1 56473U 23064AB  23329.55519501  .00002290  00000-0  19971-3 0  9993,2 56473  70.0008  70.1485 0002678 259.9890 100.0967 14.98323032 30643,6950.214,96.107,573.941,570.218,0.0
56473.0,STARLINK-5486,PAYLOAD,2023-11-25 14:55:36,14.98327417,0.0002544,70.0008,69.9796,256.2146,103.873,0.00025349,2.933e-05,0.0,0 STARLINK-5486,1 56473U 23064AB  23329.62195073  .00002933  00000-0  25349-3 0  9995,2 56473  70.0008  69.9796 0002544 256.2146 103.8730 14.98327417 30651,6950.201,96.107,573.834,570.298,0.0
56473.0,STARLINK-5486,PAYLOAD,2023-11-26 11:45:20,14.98340106,0.0002499,70.0018,67.7949,250.8238,109.2651,0.00017541,2.001e-05,0.0,0 STARLINK-5486,1 56473U 23064AB  23330.48981982  .00002001  00000-0  17541-3 0  9994,2 56473  70.0018  67.7949 0002499 250.8238 109.2651 14.98340106 31146,6950.162,96.106,573.763,570.29,0.0
56473.0,STARLINK-5486,PAYLOAD,2023-11-26 13:21:28,14.98340331,0.0002531,70.0019,67.6267,249.8067,110.282,0.00014368,1.622e-05,0.0,0 STARLINK-5486,1 56473U 23064AB  23330.55658009  .00001622  00000-0  14368-3 0  9995,2 56473  70.0019  67.6267 0002531 249.8067 110.2820 14.98340331 30794,6950.161,96.106,573.785,570.267,0.0
56473.0,STARLINK-5486,PAYLOAD,2023-11-26 16:33:44,14.9834306,0.0002157,70.0022,67.2886,269.1686,90.9226,0.00020939,2.407e-05,0.0,0 STARLINK-5486,1 56473U 23064AB  23330.69009725  .00002407  00000-0  20939-3 0  9998,2 56473  70.0022  67.2886 0002157 269.1686  90.9226 14.98343060 30816,6950.153,96.106,573.517,570.518,0.0
56473.0,STARLINK-5486,PAYLOAD,2023-11-27 10:11:16,14.9830828,0.0002613,70.0024,65.4387,240.2669,119.823,-0.00033526,-4.088e-05,0.0,0 STARLINK-5486,1 56473U 23064AB  23331.42449269 -.00004088  00000-0 -33526-3 0  9996,2 56473  70.0024  65.4387 0002613 240.2669 119.8230 14.98308280 31285,6950.26,96.108,573.941,570.309,0.0
56473.0,STARLINK-5486,PAYLOAD,2023-11-27 13:23:32,14.98308544,0.0002585,70.0024,65.1019,237.0093,123.0818,-0.00032237,-3.935e-05,0.0,0 STARLINK-5486,1 56473U 23064AB  23331.55801369 -.00003935  00000-0 -32237-3 0  9991,2 56473  70.0024  65.1019 0002585 237.0093 123.0818 14.98308544 30941,6950.259,96.108,573.921,570.328,0.0
56473.0,STARLINK-5486,PAYLOAD,2023-11-27 16:35:48,14.9831235,0.0002617,70.0019,64.7641,253.5442,106.5429,-0.00027374,-3.356e-05,0.0,0 STARLINK-5486,1 56473U 23064AB  23331.69153184 -.00003356  00000-0 -27374-3 0  9994,2 56473  70.0019  64.7641 0002617 253.5442 106.5429 14.98312350 30964,6950.247,96.108,573.931,570.294,0.0
56473.0,STARLINK-5486,PAYLOAD,2023-11-28 11:49:23,14.98335781,0.000276,70.0014,62.7446,261.1723,98.9124,-3.0816e-05,-4.61e-06,0.0,0 STARLINK-5486,1 56473U 23064AB  23332.49263104 -.00000461  00000-0 -30816-4 0  9997,2 56473  70.0014  62.7446 0002760 261.1723  98.9124 14.98335781 31449,6950.175,96.107,573.958,570.122,0.0
56473.0,STARLINK-5486,PAYLOAD,2023-11-28 13:25:31,14.98334855,0.0002521,70.0021,62.577,254.7704,105.3176,-4.0321e-05,-5.74e-06,0.0,0 STARLINK-5486,1 56473U 23064AB  23332.55939194 -.00000574  00000-0 -40321-4 0  9990,2 56473  70.0021  62.5770 0002521 254.7704 105.3176 14.98334855 31099,6950.178,96.107,573.795,570.291,0.0
56473.0,STARLINK-5486,PAYLOAD,2023-11-28 16:37:47,14.98337823,0.0002478,70.0023,62.2405,262.2931,97.7946,3.5711e-07,-8.9e-07,0.0,0 STARLINK-5486,1 56473U 23064AB  23332.69290898 -.00000089  00000-0  35711-6 0  9995,2 56473  70.0023  62.2405 0002478 262.2931  97.7946 14.98337823 31110,6950.169,96.106,573.756,570.311,0.0
56473.0,STARLINK-5486,PAYLOAD,2023-11-29 11:51:24,14.98318398,0.0002654,70.0018,60.2201,256.5121,103.5743,0.00026068,3.018e-05,0.0,0 STARLINK-5486,1 56473U 23064AB  23333.49403435  .00003018  00000-0  26068-3 0  9993,2 56473  70.0018  60.2201 0002654 256.5121 103.5743 14.98318398 31598,6950.229,96.108,573.938,570.249,0.0
56473.0,STARLINK-5486,PAYLOAD,2023-11-29 13:27:32,14.98319827,0.0002619,70.0018,60.0517,255.8052,104.2816,0.00027037,3.134e-05,0.0,0 STARLINK-5486,1 56473U 23064AB  23333.56079409  .00003134  00000-0  27037-3 0  9997,2 56473  70.0018  60.0517 0002619 255.8052 104.2816 14.98319827 31241,6950.224,96.108,573.91,570.269,0.0
56473.0,STARLINK-5486,PAYLOAD,2023-11-30 11:53:25,14.9833294,0.0003145,70.0011,57.6955,264.3943,95.6858,-1.6156e-05,-2.86e-06,0.0,0 STARLINK-5486,1 56473U 23064AB  23334.49543299 -.00000286  00000-0 -16156-4 0  9991,2 56473  70.0011  57.6955 0003145 264.3943  95.6858 14.98332940 31746,6950.184,96.107,574.235,569.863,0.0
56473.0,STARLINK-5486,PAYLOAD,2023-12-01 11:55:26,14.98335627,0.0002718,70.0019,55.1719,257.5809,102.5046,-0.0001445,-1.817e-05,0.0,0 STARLINK-5486,1 56473U 23064AB  23335.49683289 -.00001817  00000-0 -14450-3 0  9991,2 56473  70.0019  55.1719 0002718 257.5809 102.5046 14.98335627 31893,6950.175,96.107,573.93,570.151,0.0
56473.0,STARLINK-5486,PAYLOAD,2023-12-01 15:07:42,14.98337388,0.0002854,70.0012,54.8331,261.3473,98.7363,4.1747e-05,4.05e-06,0.0,0 STARLINK-5486,1 56473U 23064AB  23335.63034743  .00000405  00000-0  41747-4 0  9992,2 56473  70.0012  54.8331 0002854 261.3473  98.7363 14.98337388 31550,6950.17,96.107,574.019,570.051,0.0
56473.0,STARLINK-5486,PAYLOAD,2023-12-02 11:57:25,14.98346723,0.0002446,70.0025,52.6476,250.9318,109.1576,0.00020602,2.367e-05,0.0,0 STARLINK-5486,1 56473U 23064AB  23336.49820981  .00002367  00000-0  20602-3 0  9999,2 56473  70.0025  52.6476 0002446 250.9318 109.1576 14.98346723 32040,6950.141,96.106,573.706,570.306,0.0
56473.0,STARLINK-5486,PAYLOAD,2023-12-02 13:33:33,14.98348721,0.0002396,70.0028,52.4801,246.8592,113.2314,0.00022589,2.605e-05,0.0,0 STARLINK-5486,1 56473U 23064AB  23336.56496707  .00002605  00000-0  22589-3 0  9993,2 56473  70.0028  52.4801 0002396 246.8592 113.2314 14.98348721 31691,6950.135,96.106,573.665,570.335,0.0
56473.0,STARLINK-5486,PAYLOAD,2023-12-02 15:09:41,14.98347531,0.0002194,70.0034,52.3117,243.2038,116.8897,0.00023967,2.769e-05,0.0,0 STARLINK-5486,1 56473U 23064AB  23336.63172765  .00002769  00000-0  23967-3 0  9998,2 56473  70.0034  52.3117 0002194 243.2038 116.8897 14.98347531 31704,6950.139,96.106,573.529,570.479,0.0
56473.0,STARLINK-5486,PAYLOAD,2023-12-03 11:59:30,14.98292567,0.0002557,70.0018,50.1218,259.8612,100.2259,-0.00037739,-4.588e-05,0.0,0 STARLINK-5486,1 56473U 23064AB  23337.49966278 -.00004588  00000-0 -37739-3 0  9998,2 56473  70.0018  50.1218 0002557 259.8612 100.2259 14.98292567 32199,6950.309,96.109,573.951,570.396,0.0
